[{"OBJECT_NAME":"ONEWEB-0514","OBJECT_ID":"2022-138V","EPOCH":"2025-08-04T11:39:27.943776","MEAN_MOTION":13.19724646,"ECCENTRICITY":0.0001787,"INCLINATION":87.924,"RA_OF_ASC_NODE":7.9135,"ARG_OF_PERICENTER":98.0041,"MEAN_ANOMALY":262.1294,"EPHEMERIS_TYPE":0,"CLASSIFICATION_TYPE":"U","NORAD_CAT_ID":54132,"ELEMENT_SET_NO":999,"REV_AT_EPOCH":13505,"BSTAR":-4.384e-5,"MEAN_MOTION_DOT":-5.0e-8,"MEAN_MOTION_DDOT":0},{"OBJECT_NAME":"ONEWEB-0515","OBJECT_ID":"2022-138W","EPOCH":"2025-08-04T14:34:03.961920","MEAN_MOTION":13.20772389,"ECCENTRICITY":9.91e-5,"INCLINATION":87.9306,"RA_OF_ASC_NODE":337.4913,"ARG_OF_PERICENTER":100.8061,"MEAN_ANOMALY":259.3184,"EPHEMERIS_TYPE":0,"CLASSIFICATION_TYPE":"U","NORAD_CAT_ID":54133,"ELEMENT_SET_NO":999,"REV_AT_EPOCH":13751,"BSTAR":-9.9336e-7,"MEAN_MOTION_DOT":1.3e-7,"MEAN_MOTION_DDOT":0},{"OBJECT_NAME":"ONEWEB-0516","OBJECT_ID":"2022-138X","EPOCH":"2025-08-04T16:30:36.123840","MEAN_MOTION":13.19726752,"ECCENTRICITY":0.0001868,"INCLINATION":87.9234,"RA_OF_ASC_NODE":7.9095,"ARG_OF_PERICENTER":90.4446,"MEAN_ANOMALY":269.69,"EPHEMERIS_TYPE":0,"CLASSIFICATION_TYPE":"U","NORAD_CAT_ID":54134,"ELEMENT_SET_NO":999,"REV_AT_EPOCH":13508,"BSTAR":0.00018786,"MEAN_MOTION_DOT":8.8e-7,"MEAN_MOTION_DDOT":0},{"OBJECT_NAME":"ONEWEB-0517","OBJECT_ID":"2022-138Y","EPOCH":"2025-08-04T16:01:02.200512","MEAN_MOTION":13.19726548,"ECCENTRICITY":0.0002041,"INCLINATION":87.924,"RA_OF_ASC_NODE":7.8726,"ARG_OF_PERICENTER":102.9167,"MEAN_ANOMALY":257.2194,"EPHEMERIS_TYPE":0,"CLASSIFICATION_TYPE":"U","NORAD_CAT_ID":54135,"ELEMENT_SET_NO":999,"REV_AT_EPOCH":13508,"BSTAR":0.00014207,"MEAN_MOTION_DOT":7.0e-7,"MEAN_MOTION_DDOT":0},{"OBJECT_NAME":"ONEWEB-0518","OBJECT_ID":"2022-138Z","EPOCH":"2025-08-04T16:28:20.833536","MEAN_MOTION":13.19725451,"ECCENTRICITY":0.0002015,"INCLINATION":87.9238,"RA_OF_ASC_NODE":7.9063,"ARG_OF_PERICENTER":91.249,"MEAN_ANOMALY":268.8874,"EPHEMERIS_TYPE":0,"CLASSIFICATION_TYPE":"U","NORAD_CAT_ID":54136,"ELEMENT_SET_NO":999,"REV_AT_EPOCH":13508,"BSTAR":5.6274e-5,"MEAN_MOTION_DOT":3.5e-7,"MEAN_MOTION_DDOT":0},{"OBJECT_NAME":"ONEWEB-0519","OBJECT_ID":"2022-138AA","EPOCH":"2025-08-04T11:37:11.625312","MEAN_MOTION":13.19726514,"ECCENTRICITY":0.0002048,"INCLINATION":87.924,"RA_OF_ASC_NODE":7.9013,"ARG_OF_PERICENTER":100.1361,"MEAN_ANOMALY":260.0003,"EPHEMERIS_TYPE":0,"CLASSIFICATION_TYPE":"U","NORAD_CAT_ID":54137,"ELEMENT_SET_NO":999,"REV_AT_EPOCH":13506,"BSTAR":-4.9779e-7,"MEAN_MOTION_DOT":1.3e-7,"MEAN_MOTION_DDOT":0},{"OBJECT_NAME":"ONEWEB-0520","OBJECT_ID":"2022-138AB","EPOCH":"2025-08-04T17:54:46.034496","MEAN_MOTION":13.19725648,"ECCENTRICITY":0.0002043,"INCLINATION":87.9242,"RA_OF_ASC_NODE":7.8533,"ARG_OF_PERICENTER":86.7545,"MEAN_ANOMALY":273.3821,"EPHEMERIS_TYPE":0,"CLASSIFICATION_TYPE":"U","NORAD_CAT_ID":54138,"ELEMENT_SET_NO":999,"REV_AT_EPOCH":13508,"BSTAR":-7.0859e-5,"MEAN_MOTION_DOT":-1.5e-7,"MEAN_MOTION_DDOT":0},{"OBJECT_NAME":"ONEWEB-0521","OBJECT_ID":"2022-138AC","EPOCH":"2025-08-04T18:42:31.313376","MEAN_MOTION":13.19723782,"ECCENTRICITY":0.0001923,"INCLINATION":87.9239,"RA_OF_ASC_NODE":7.8331,"ARG_OF_PERICENTER":102.9424,"MEAN_ANOMALY":257.1924,"EPHEMERIS_TYPE":0,"CLASSIFICATION_TYPE":"U","NORAD_CAT_ID":54139,"ELEMENT_SET_NO":999,"REV_AT_EPOCH":13503,"BSTAR":-0.00011989,"MEAN_MOTION_DOT":-3.5e-7,"MEAN_MOTION_DDOT":0},{"OBJECT_NAME":"ONEWEB-0522","OBJECT_ID":"2022-138AD","EPOCH":"2025-08-04T16:23:46.612896","MEAN_MOTION":13.19724566,"ECCENTRICITY":0.0001868,"INCLINATION":87.9239,"RA_OF_ASC_NODE":7.8534,"ARG_OF_PERICENTER":92.2935,"MEAN_ANOMALY":267.8412,"EPHEMERIS_TYPE":0,"CLASSIFICATION_TYPE":"U","NORAD_CAT_ID":54140,"ELEMENT_SET_NO":999,"REV_AT_EPOCH":13506,"BSTAR":0.00026206,"MEAN_MOTION_DOT":1.18e-6,"MEAN_MOTION_DDOT":0},{"OBJECT_NAME":"ONEWEB-0523","OBJECT_ID":"2022-138AE","EPOCH":"2025-08-04T14:15:54.159840","MEAN_MOTION":13.20771795,"ECCENTRICITY":0.0001464,"INCLINATION":87.9292,"RA_OF_ASC_NODE":337.5228,"ARG_OF_PERICENTER":124.4127,"MEAN_ANOMALY":235.7145,"EPHEMERIS_TYPE":0,"CLASSIFICATION_TYPE":"U","NORAD_CAT_ID":54141,"ELEMENT_SET_NO":999,"REV_AT_EPOCH":13751,"BSTAR":0.00021878,"MEAN_MOTION_DOT":1.02e-6,"MEAN_MOTION_DDOT":0},{"OBJECT_NAME":"ONEWEB-0524","OBJECT_ID":"2022-138AF","EPOCH":"2025-08-04T08:32:43.123488","MEAN_MOTION":13.20771142,"ECCENTRICITY":0.000104,"INCLINATION":87.9291,"RA_OF_ASC_NODE":337.5716,"ARG_OF_PERICENTER":82.0084,"MEAN_ANOMALY":278.1168,"EPHEMERIS_TYPE":0,"CLASSIFICATION_TYPE":"U","NORAD_CAT_ID":54142,"ELEMENT_SET_NO":999,"REV_AT_EPOCH":13748,"BSTAR":0.00014531,"MEAN_MOTION_DOT":7.2e-7,"MEAN_MOTION_DDOT":0},{"OBJECT_NAME":"ONEWEB-0525","OBJECT_ID":"2022-138AG","EPOCH":"2025-08-04T16:51:04.473504","MEAN_MOTION":13.19724478,"ECCENTRICITY":0.0002039,"INCLINATION":87.924,"RA_OF_ASC_NODE":7.8698,"ARG_OF_PERICENTER":87.9119,"MEAN_ANOMALY":272.2247,"EPHEMERIS_TYPE":0,"CLASSIFICATION_TYPE":"U","NORAD_CAT_ID":54143,"ELEMENT_SET_NO":999,"REV_AT_EPOCH":13508,"BSTAR":0.00021234,"MEAN_MOTION_DOT":9.8e-7,"MEAN_MOTION_DDOT":0},{"OBJECT_NAME":"ONEWEB-0526","OBJECT_ID":"2022-138AH","EPOCH":"2025-08-04T21:17:12.487776","MEAN_MOTION":13.1972602,"ECCENTRICITY":0.0001854,"INCLINATION":87.9239,"RA_OF_ASC_NODE":7.8208,"ARG_OF_PERICENTER":91.7463,"MEAN_ANOMALY":268.3882,"EPHEMERIS_TYPE":0,"CLASSIFICATION_TYPE":"U","NORAD_CAT_ID":54144,"ELEMENT_SET_NO":999,"REV_AT_EPOCH":13508,"BSTAR":-7.8347e-5,"MEAN_MOTION_DOT":-1.8e-7,"MEAN_MOTION_DDOT":0},{"OBJECT_NAME":"ONEWEB-0529","OBJECT_ID":"2022-138AJ","EPOCH":"2025-08-04T15:54:14.187744","MEAN_MOTION":13.19725789,"ECCENTRICITY":0.0001957,"INCLINATION":87.9231,"RA_OF_ASC_NODE":7.9079,"ARG_OF_PERICENTER":87.7538,"MEAN_ANOMALY":272.3819,"EPHEMERIS_TYPE":0,"CLASSIFICATION_TYPE":"U","NORAD_CAT_ID":54145,"ELEMENT_SET_NO":999,"REV_AT_EPOCH":13507,"BSTAR":0.00015123,"MEAN_MOTION_DOT":7.3e-7,"MEAN_MOTION_DDOT":0},{"OBJECT_NAME":"ONEWEB-0531","OBJECT_ID":"2022-138AK","EPOCH":"2025-08-04T10:01:21.449568","MEAN_MOTION":13.20772313,"ECCENTRICITY":0.000114,"INCLINATION":87.9291,"RA_OF_ASC_NODE":337.5531,"ARG_OF_PERICENTER":119.1308,"MEAN_ANOMALY":240.994,"EPHEMERIS_TYPE":0,"CLASSIFICATION_TYPE":"U","NORAD_CAT_ID":54146,"ELEMENT_SET_NO":999,"REV_AT_EPOCH":13749,"BSTAR":-0.00014857,"MEAN_MOTION_DOT":-4.7e-7,"MEAN_MOTION_DDOT":0},{"OBJECT_NAME":"ONEWEB-0535","OBJECT_ID":"2022-138AL","EPOCH":"2025-08-04T18:31:10.151328","MEAN_MOTION":13.19726487,"ECCENTRICITY":0.0001634,"INCLINATION":87.9238,"RA_OF_ASC_NODE":7.8395,"ARG_OF_PERICENTER":106.2337,"MEAN_ANOMALY":253.8976,"EPHEMERIS_TYPE":0,"CLASSIFICATION_TYPE":"U","NORAD_CAT_ID":54147,"ELEMENT_SET_NO":999,"REV_AT_EPOCH":13510,"BSTAR":7.4253e-5,"MEAN_MOTION_DOT":4.3e-7,"MEAN_MOTION_DDOT":0},{"OBJECT_NAME":"ONEWEB-0536","OBJECT_ID":"2022-138AM","EPOCH":"2025-08-04T18:48:36.714528","MEAN_MOTION":13.20771682,"ECCENTRICITY":9.1e-5,"INCLINATION":87.9291,"RA_OF_ASC_NODE":337.526,"ARG_OF_PERICENTER":116.4298,"MEAN_ANOMALY":243.6929,"EPHEMERIS_TYPE":0,"CLASSIFICATION_TYPE":"U","NORAD_CAT_ID":54148,"ELEMENT_SET_NO":999,"REV_AT_EPOCH":13753,"BSTAR":-8.6997e-5,"MEAN_MOTION_DOT":-2.2e-7,"MEAN_MOTION_DDOT":0}]
