ONEWEB-0514             
1 54132U 22138V   25216.48574009 -.00000005  00000+0 -43840-4 0  9993
2 54132  87.9240   7.9135 0001787  98.0041 262.1294 13.19724646135050
ONEWEB-0515             
1 54133U 22138W   25216.60699030  .00000013  00000+0 -99336-6 0  9991
2 54133  87.9306 337.4913 0000991 100.8061 259.3184 13.20772389137517
ONEWEB-0516             
1 54134U 22138X   25216.68791810  .00000088  00000+0  18786-3 0  9997
2 54134  87.9234   7.9095 0001868  90.4446 269.6900 13.19726752135084
ONEWEB-0517             
1 54135U 22138Y   25216.66738658  .00000070  00000+0  14207-3 0  9992
2 54135  87.9240   7.8726 0002041 102.9167 257.2194 13.19726548135086
ONEWEB-0518             
1 54136U 22138Z   25216.68635224  .00000035  00000+0  56274-4 0  9992
2 54136  87.9238   7.9063 0002015  91.2490 268.8874 13.19725451135084
ONEWEB-0519             
1 54137U 22138AA  25216.48416233  .00000013  00000+0 -49779-6 0  9999
2 54137  87.9240   7.9013 0002048 100.1361 260.0003 13.19726514135063
ONEWEB-0520             
1 54138U 22138AB  25216.74636614 -.00000015  00000+0 -70859-4 0  9990
2 54138  87.9242   7.8533 0002043  86.7545 273.3821 13.19725648135084
ONEWEB-0521             
1 54139U 22138AC  25216.77952909 -.00000035  00000+0 -11989-3 0  9992
2 54139  87.9239   7.8331 0001923 102.9424 257.1924 13.19723782135036
ONEWEB-0522             
1 54140U 22138AD  25216.68317839  .00000118  00000+0  26206-3 0  9999
2 54140  87.9239   7.8534 0001868  92.2935 267.8412 13.19724566135063
ONEWEB-0523             
1 54141U 22138AE  25216.59437685  .00000102  00000+0  21878-3 0  9995
2 54141  87.9292 337.5228 0001464 124.4127 235.7145 13.20771795137516
ONEWEB-0524             
1 54142U 22138AF  25216.35605467  .00000072  00000+0  14531-3 0  9999
2 54142  87.9291 337.5716 0001040  82.0084 278.1168 13.20771142137487
ONEWEB-0525             
1 54143U 22138AG  25216.70213511  .00000098  00000+0  21234-3 0  9990
2 54143  87.9240   7.8698 0002039  87.9119 272.2247 13.19724478135085
ONEWEB-0526             
1 54144U 22138AH  25216.88695009 -.00000018  00000+0 -78347-4 0  9998
2 54144  87.9239   7.8208 0001854  91.7463 268.3882 13.19726020135086
ONEWEB-0529             
1 54145U 22138AJ  25216.66266421  .00000073  00000+0  15123-3 0  9998
2 54145  87.9231   7.9079 0001957  87.7538 272.3819 13.19725789135073
ONEWEB-0531             
1 54146U 22138AK  25216.41760937 -.00000047  00000+0 -14857-3 0  9999
2 54146  87.9291 337.5531 0001140 119.1308 240.9940 13.20772313137495
ONEWEB-0535             
1 54147U 22138AL  25216.77164527  .00000043  00000+0  74253-4 0  9993
2 54147  87.9238   7.8395 0001634 106.2337 253.8976 13.19726487135106
ONEWEB-0536             
1 54148U 22138AM  25216.78375827 -.00000022  00000+0 -86997-4 0  9999
2 54148  87.9291 337.5260 0000910 116.4298 243.6929 13.20771682137538
